{"type": "FeatureCollection", "features": [ {"type": "Feature", "properties": {"norad_id": 31633, "name": "FENGYUN 1C DEB", "group": "fengyun-1c-debris", "lat": 42.97690630952869, "lon": -16.274023769045034, "alt_km": 911.4690607344546, "timestamp": "2025-12-03T08:58:46.285216+00:00", "meta": {"OBJECT_NAME": "FENGYUN 1C DEB", "OBJECT_ID": "1999-025CAP", "EPOCH": "2025-11-15T20:43:47.485920", "MEAN_MOTION": 14.06334417, "ECCENTRICITY": 0.00656916, "INCLINATION": 98.7152, "RA_OF_ASC_NODE": 335.0833, "ARG_OF_PERICENTER": 248.7649, "MEAN_ANOMALY": 110.6494, "EPHEMERIS_TYPE": 0, "CLASSIFICATION_TYPE": "U", "NORAD_CAT_ID": 31633, "ELEMENT_SET_NO": 999, "REV_AT_EPOCH": 56706, "BSTAR": 0.0011592605, "MEAN_MOTION_DOT": 1.907e-05, "MEAN_MOTION_DDOT": 0}, "tle": {"line1": "1 31633U 99025CAP 25319.86374405  .00001907  00000+0  11593-2 0  9995", "line2": "2 31633  98.7152 335.0833 0065691 248.7649 110.6494 14.06334417567064"}}, "geometry": {"type": "Point", "coordinates": [-16.274023769045034, 42.97690630952869]}}, {"type": "Feature", "properties": {"norad_id": 31634, "name": "FENGYUN 1C DEB", "group": "fengyun-1c-debris", "lat": -26.95800252107895, "lon": 28.548038081312463, "alt_km": 975.5899231098356, "timestamp": "2025-12-03T08:58:46.285226+00:00", "meta": {"OBJECT_NAME": "FENGYUN 1C DEB", "OBJECT_ID": "1999-025CAQ", "EPOCH": "2025-12-02T09:00:27.072576", "MEAN_MOTION": 13.94657889, "ECCENTRICITY": 0.00916924, "INCLINATION": 99.3683, "RA_OF_ASC_NODE": 22.7184, "ARG_OF_PERICENTER": 185.6903, "MEAN_ANOMALY": 174.3223, "EPHEMERIS_TYPE": 0, "CLASSIFICATION_TYPE": "U", "NORAD_CAT_ID": 31634, "ELEMENT_SET_NO": 999, "REV_AT_EPOCH": 56379, "BSTAR": 0.00031553586, "MEAN_MOTION_DOT": 3.91e-06, "MEAN_MOTION_DDOT": 0}, "tle": {"line1": "1 31634U 99025CAQ 25336.37531334  .00000391  00000+0  31554-3 0  9993", "line2": "2 31634  99.3683  22.7184 0091692 185.6903 174.3223 13.94657889563792"}}, "geometry": {"type": "Point", "coordinates": [28.548038081312463, -26.95800252107895]}}, {"type": "Feature", "properties": {"norad_id": 31639, "name": "FENGYUN 1C DEB", "group": "fengyun-1c-debris", "lat": 13.655721170323897, "lon": 106.08412499188404, "alt_km": 828.9413078837697, "timestamp": "2025-12-03T08:58:46.285240+00:00", "meta": {"OBJECT_NAME": "FENGYUN 1C DEB", "OBJECT_ID": "1999-025CAV", "EPOCH": "2025-11-30T08:06:41.226624", "MEAN_MOTION": 13.85157464, "ECCENTRICITY": 0.01610819, "INCLINATION": 98.7412, "RA_OF_ASC_NODE": 281.1108, "ARG_OF_PERICENTER": 178.8374, "MEAN_ANOMALY": 335.5568, "EPHEMERIS_TYPE": 0, "CLASSIFICATION_TYPE": "U", "NORAD_CAT_ID": 31639, "ELEMENT_SET_NO": 999, "REV_AT_EPOCH": 93516, "BSTAR": 0.00014166692, "MEAN_MOTION_DOT": 1.38e-06, "MEAN_MOTION_DDOT": 0}, "tle": {"line1": "1 31639U 99025CAV 25334.33797716  .00000138  00000+0  14167-3 0  9990", "line2": "2 31639  98.7412 281.1108 0161081 178.8374 335.5568 13.85157464935164"}}, "geometry": {"type": "Point", "coordinates": [106.08412499188404, 13.655721170323897]}}, {"type": "Feature", "properties": {"norad_id": 31642, "name": "FENGYUN 1C DEB", "group": "fengyun-1c-debris", "lat": 16.67415938931823, "lon": -117.69734265461291, "alt_km": 824.6905225589289, "timestamp": "2025-12-03T08:58:46.285251+00:00", "meta": {"OBJECT_NAME": "FENGYUN 1C DEB", "OBJECT_ID": "1999-025CAY", "EPOCH": "2025-12-03T04:51:32.967360", "MEAN_MOTION": 14.3336659, "ECCENTRICITY": 0.0118996, "INCLINATION": 98.5051, "RA_OF_ASC_NODE": 59.5651, "ARG_OF_PERICENTER": 284.9372, "MEAN_ANOMALY": 73.8663, "EPHEMERIS_TYPE": 0, "CLASSIFICATION_TYPE": "U", "NORAD_CAT_ID": 31642, "ELEMENT_SET_NO": 999, "REV_AT_EPOCH": 96882, "BSTAR": 0.00045607, "MEAN_MOTION_DOT": 1.314e-05, "MEAN_MOTION_DDOT": 0}, "tle": {"line1": "1 31642U 99025CAY 25337.20246490  .00001314  00000+0  45607-3 0  9991", "line2": "2 31642  98.5051  59.5651 0118996 284.9372  73.8663 14.33366590968822"}}, "geometry": {"type": "Point", "coordinates": [-117.69734265461291, 16.67415938931823]}}, {"type": "Feature", "properties": {"norad_id": 31644, "name": "FENGYUN 1C DEB", "group": "fengyun-1c-debris", "lat": 25.05166960648876, "lon": -137.4302477881476, "alt_km": 775.1820699515047, "timestamp": "2025-12-03T08:58:46.285261+00:00", "meta": {"OBJECT_NAME": "FENGYUN 1C DEB", "OBJECT_ID": "1999-025CBA", "EPOCH": "2025-11-21T12:42:57.254976", "MEAN_MOTION": 14.67516409, "ECCENTRICITY": 0.01542321, "INCLINATION": 98.6708, "RA_OF_ASC_NODE": 214.1231, "ARG_OF_PERICENTER": 249.7824, "MEAN_ANOMALY": 233.9489, "EPHEMERIS_TYPE": 0, "CLASSIFICATION_TYPE": "U", "NORAD_CAT_ID": 31644, "ELEMENT_SET_NO": 999, "REV_AT_EPOCH": 70733, "BSTAR": 0.0012165012, "MEAN_MOTION_DOT": 8.195e-05, "MEAN_MOTION_DDOT": 0}, "tle": {"line1": "1 31644U 99025CBA 25325.52982934  .00008195  00000+0  12165-2 0  9991", "line2": "2 31644  98.6708 214.1231 0154232 249.7824 233.9489 14.67516409707336"}}, "geometry": {"type": "Point", "coordinates": [-137.4302477881476, 25.05166960648876]}}, {"type": "Feature", "properties": {"norad_id": 31646, "name": "FENGYUN 1C DEB", "group": "fengyun-1c-debris", "lat": -27.23670587755307, "lon": 176.12487329337404, "alt_km": 831.6010326779924, "timestamp": "2025-12-03T08:58:46.285273+00:00", "meta": {"OBJECT_NAME": "FENGYUN 1C DEB", "OBJECT_ID": "1999-025CBC", "EPOCH": "2025-11-26T07:52:55.511328", "MEAN_MOTION": 14.14089846, "ECCENTRICITY": 0.00324277, "INCLINATION": 98.6918, "RA_OF_ASC_NODE": 353.7887, "ARG_OF_PERICENTER": 261.5394, "MEAN_ANOMALY": 98.2104, "EPHEMERIS_TYPE": 0, "CLASSIFICATION_TYPE": "U", "NORAD_CAT_ID": 31646, "ELEMENT_SET_NO": 999, "REV_AT_EPOCH": 62959, "BSTAR": 0.00056384742, "MEAN_MOTION_DOT": 1.035e-05, "MEAN_MOTION_DDOT": 0}, "tle": {"line1": "1 31646U 99025CBC 25330.32842027  .00001035  00000+0  56385-3 0  9994", "line2": "2 31646  98.6918 353.7887 0032427 261.5394  98.2104 14.14089846629592"}}, "geometry": {"type": "Point", "coordinates": [176.12487329337404, -27.23670587755307]}}, {"type": "Feature", "properties": {"norad_id": 31655, "name": "FENGYUN 1C DEB", "group": "fengyun-1c-debris", "lat": -78.38355409392014, "lon": -23.59061096745138, "alt_km": 1112.8406967123856, "timestamp": "2025-12-03T08:58:46.285283+00:00", "meta": {"OBJECT_NAME": "FENGYUN 1C DEB", "OBJECT_ID": "1999-025CBM", "EPOCH": "2025-12-02T03:33:47.704320", "MEAN_MOTION": 13.63773307, "ECCENTRICITY": 0.02884116, "INCLINATION": 99.2856, "RA_OF_ASC_NODE": 282.5047, "ARG_OF_PERICENTER": 165.6221, "MEAN_ANOMALY": 213.94, "EPHEMERIS_TYPE": 0, "CLASSIFICATION_TYPE": "U", "NORAD_CAT_ID": 31655, "ELEMENT_SET_NO": 999, "REV_AT_EPOCH": 59575, "BSTAR": 0.002889873, "MEAN_MOTION_DOT": 2.997e-05, "MEAN_MOTION_DDOT": 0}, "tle": {"line1": "1 31655U 99025CBM 25336.14846880  .00002997  00000+0  28899-2 0  9997", "line2": "2 31655  99.2856 282.5047 0288411 165.6221 213.9400 13.63773307595756"}}, "geometry": {"type": "Point", "coordinates": [-23.59061096745138, -78.38355409392014]}}, {"type": "Feature", "properties": {"norad_id": 31656, "name": "FENGYUN 1C DEB", "group": "fengyun-1c-debris", "lat": 56.27874503183256, "lon": 159.4074332963771, "alt_km": 719.251698814167, "timestamp": "2025-12-03T08:58:46.285294+00:00", "meta": {"OBJECT_NAME": "FENGYUN 1C DEB", "OBJECT_ID": "1999-025CBN", "EPOCH": "2025-12-02T11:32:34.505088", "MEAN_MOTION": 14.46741192, "ECCENTRICITY": 0.00227163, "INCLINATION": 99.1927, "RA_OF_ASC_NODE": 324.3975, "ARG_OF_PERICENTER": 80.8327, "MEAN_ANOMALY": 72.1499, "EPHEMERIS_TYPE": 0, "CLASSIFICATION_TYPE": "U", "NORAD_CAT_ID": 31656, "ELEMENT_SET_NO": 999, "REV_AT_EPOCH": 96307, "BSTAR": 0.0027056169, "MEAN_MOTION_DOT": 9.781e-05, "MEAN_MOTION_DDOT": 0}, "tle": {"line1": "1 31656U 99025CBN 25336.48095492  .00009781  00000+0  27056-2 0  9992", "line2": "2 31656  99.1927 324.3975 0022716  80.8327  72.1499 14.46741192963075"}}, "geometry": {"type": "Point", "coordinates": [159.4074332963771, 56.27874503183256]}}, {"type": "Feature", "properties": {"norad_id": 31657, "name": "FENGYUN 1C DEB", "group": "fengyun-1c-debris", "lat": -31.948336113414708, "lon": 50.962852868643274, "alt_km": 985.5777779894961, "timestamp": "2025-12-03T08:58:46.285304+00:00", "meta": {"OBJECT_NAME": "FENGYUN 1C DEB", "OBJECT_ID": "1999-025CBP", "EPOCH": "2025-12-01T23:19:04.849824", "MEAN_MOTION": 13.96877363, "ECCENTRICITY": 0.0144659, "INCLINATION": 102.2169, "RA_OF_ASC_NODE": 236.8704, "ARG_OF_PERICENTER": 80.0199, "MEAN_ANOMALY": 281.7242, "EPHEMERIS_TYPE": 0, "CLASSIFICATION_TYPE": "U", "NORAD_CAT_ID": 31657, "ELEMENT_SET_NO": 999, "REV_AT_EPOCH": 62714, "BSTAR": 0.0034958058, "MEAN_MOTION_DOT": 5.25e-05, "MEAN_MOTION_DDOT": 0}, "tle": {"line1": "1 31657U 99025CBP 25335.97158391  .00005250  00000+0  34958-2 0  9990", "line2": "2 31657 102.2169 236.8704 0144659  80.0199 281.7242 13.96877363627140"}}, "geometry": {"type": "Point", "coordinates": [50.962852868643274, -31.948336113414708]}}, {"type": "Feature", "properties": {"norad_id": 31658, "name": "FENGYUN 1C DEB", "group": "fengyun-1c-debris", "lat": 80.97400164225571, "lon": 71.98443672953103, "alt_km": 928.7299886580422, "timestamp": "2025-12-03T08:58:46.285316+00:00", "meta": {"OBJECT_NAME": "FENGYUN 1C DEB", "OBJECT_ID": "1999-025CBQ", "EPOCH": "2025-11-30T13:35:01.131648", "MEAN_MOTION": 13.98632883, "ECCENTRICITY": 0.0215722, "INCLINATION": 98.1534, "RA_OF_ASC_NODE": 184.9954, "ARG_OF_PERICENTER": 356.7033, "MEAN_ANOMALY": 3.2699, "EPHEMERIS_TYPE": 0, "CLASSIFICATION_TYPE": "U", "NORAD_CAT_ID": 31658, "ELEMENT_SET_NO": 999, "REV_AT_EPOCH": 69646, "BSTAR": 0.0024889, "MEAN_MOTION_DOT": 4.324e-05, "MEAN_MOTION_DDOT": 0}, "tle": {"line1": "1 31658U 99025CBQ 25334.56598532  .00004324  00000+0  24889-2 0  9993", "line2": "2 31658  98.1534 184.9954 0215722 356.7033   3.2699 13.98632883696462"}}, "geometry": {"type": "Point", "coordinates": [71.98443672953103, 80.97400164225571]}}]}